ONEWEB-0589             
1 54655U 22166P   24136.70668122  .00000016  00000+0  76015-5 0  9990
2 54655  87.9318  35.7601 0001242  49.7276 310.3966 13.21826730 70816
ONEWEB-0590             
1 54656U 22166Q   24136.95742352  .00000047  00000+0  81500-4 0  9994
2 54656  87.9321  35.7161 0002054  77.1768 282.9595 13.21827222 70836
ONEWEB-0591             
1 54657U 22166R   24136.97003457  .00000071  00000+0  14106-3 0  9997
2 54657  87.9318  35.7109 0001768  76.5463 283.5868 13.21827356 70862
ONEWEB-0592             
1 54658U 22166S   24136.97319136  .00000075  00000+0  14968-3 0  9992
2 54658  87.9316  35.6768 0001750  71.8732 288.2593 13.21827177 70744
ONEWEB-0593             
1 54659U 22166T   24136.76976321 -.00000016  00000+0 -70603-4 0  9991
2 54659  87.9317  35.7416 0001697  73.1231 287.0089 13.21826631 70826
ONEWEB-0594             
1 54660U 22166U   24136.71298803 -.00000002  00000+0 -35760-4 0  9990
2 54660  87.9321  35.7517 0001845  85.4993 274.6352 13.21826617 70831
ONEWEB-0595             
1 54661U 22166V   24137.14510218  .00000092  00000+0  19132-3 0  9997
2 54661  87.9317  35.6539 0002114  80.4740 279.6633 13.21825778 71335
ONEWEB-0596             
1 54662U 22166W   24136.96688628  .00000103  00000+0  21792-3 0  9996
2 54662  87.9318  35.6940 0001791  69.2366 290.8960 13.21828855 70844
ONEWEB-0597             
1 54663U 22166X   24136.94796367  .00000009  00000+0 -85834-5 0  9990
2 54663  87.9320  35.6997 0001502  75.9108 284.2193 13.21826710 70841
ONEWEB-0600             
1 54664U 22166Y   24136.77921913  .00000002  00000+0 -26298-4 0  9990
2 54664  87.9318  35.7751 0001621  77.0358 283.0957 13.21827074 70793
ONEWEB-0601             
1 54665U 22166Z   24136.77133384 -.00000003  00000+0 -37948-4 0  9994
2 54665  87.9321  35.7385 0001538  64.4038 295.7255 13.21826805 70986
ONEWEB-0602             
1 54666U 22166AA  24136.96373580  .00000076  00000+0  15342-3 0  9991
2 54666  87.9322  35.7048 0001520  73.8993 286.2308 13.21826604 70856
ONEWEB-0603             
1 54667U 22166AB  24136.96846204  .00000094  00000+0  19558-3 0  9993
2 54667  87.9324  35.7045 0001508  71.3490 288.7808 13.21827245 70783
ONEWEB-0604             
1 54668U 22166AC  24136.95583983  .00000004  00000+0 -20781-4 0  9998
2 54668  87.9313  35.6891 0001713  88.7095 271.4235 13.21827490 70742
ONEWEB-0605             
1 54669U 22166AD  24136.94955263  .00000028  00000+0  36098-4 0  9995
2 54669  87.9317  35.7234 0001615  58.4119 301.7172 13.21827453 70815
ONEWEB-0606             
1 54670U 22166AE  24136.74453261  .00000090  00000+0  18621-3 0  9996
2 54670  87.9323  35.7523 0002073  82.3419 277.7950 13.21826850 70842
ONEWEB-0607             
1 54671U 22166AF  24136.78710702 -.00000109  00000+0 -29485-3 0  9990
2 54671  87.9319  35.7229 0001557  75.7301 284.4005 13.21826372 70826
ONEWEB-0608             
1 54672U 22166AG  24137.17191983 -.00002148  00000+0 -52344-2 0  9993
2 54672  87.9320  35.6659 0001516  59.8983 300.2301 13.21810022 71348
ONEWEB-0610             
1 54673U 22166AH  24136.77449151 -.00000024  00000+0 -90775-4 0  9995
2 54673  87.9321  35.7415 0001565  64.5922 295.5374 13.21826373 70735
ONEWEB-0611             
1 54674U 22166AJ  24136.76819409 -.00000021  00000+0 -83193-4 0  9995
2 54674  87.9317  35.7419 0002145  89.4105 270.7275 13.21827048 70723
ONEWEB-0612             
1 54675U 22166AK  24136.78080349  .00000013  00000+0  96162-6 0  9992
2 54675  87.9317  35.7225 0001704  71.5782 288.5537 13.21827828 70715
ONEWEB-0615             
1 54676U 22166AL  24136.76187019  .00000045  00000+0  76799-4 0  9990
2 54676  87.9319  35.7508 0001597  81.3694 278.7620 13.21826993 70720
ONEWEB-0655             
1 54677U 22166AM  24136.96215984  .00000153  00000+0  33988-3 0  9998
2 54677  87.9319  35.7130 0001366  89.8902 270.2389 13.21827392 70746
ONEWEB-0659             
1 54678U 22166AN  24136.75241363  .00000102  00000+0  21551-3 0  9993
2 54678  87.9319  35.7616 0002121  81.3051 278.8323 13.21827848 70803
ONEWEB-0685             
1 54679U 22166AP  24136.75399025  .00000089  00000+0  18350-3 0  9990
2 54679  87.9320  35.7503 0001581  78.5032 281.6280 13.21827053 70696
ONEWEB-0712             
1 54680U 22166AQ  24137.14533647 -.00000566  00000+0 -15148-2 0  9999
2 54680  87.9137  20.4781 0002106  92.3473 267.7899 13.16594411 72247
ONEWEB-0714             
1 54681U 22166AR  24137.21446138 -.00001767  00000+0 -43092-2 0  9999
2 54681  87.9328  35.6488 0002214  88.3400 271.7987 13.21853860 71342
ONEWEB-0532             
1 55140U 23004A   24137.08919959  .00000064  00000+0  13145-3 0  9997
2 55140  87.9171 157.5441 0002118  74.9293 285.2073 13.17649195 67223
ONEWEB-0533             
1 55141U 23004B   24136.93388444  .00000484  00000+0  13099-2 0  9993
2 55141  87.8934 142.3973 0001854  91.8497 268.2844 13.12441676 68072
ONEWEB-0541             
1 55142U 23004C   24136.59678124 -.00000644  00000+0 -18485-2 0  9997
2 55142  87.8981 172.7651 0001983  93.0408 267.0947 13.11556261 66002
ONEWEB-0543             
1 55143U 23004D   24136.90892480  .00000163  00000+0  38087-3 0  9991
2 55143  87.9114 127.2941 0002028  99.0112 261.1249 13.18685978 69231
ONEWEB-0544             
1 55144U 23004E   24136.90260426  .00000139  00000+0  31935-3 0  9999
2 55144  87.9115 127.2799 0002145  86.9971 273.1407 13.18686403 69235
ONEWEB-0560             
1 55145U 23004F   24136.89627905  .00000089  00000+0  19177-3 0  9995
2 55145  87.9123 127.2304 0002365  96.3165 263.8236 13.18685913 69243
ONEWEB-0565             
1 55146U 23004G   24136.88995434  .00000101  00000+0  22331-3 0  9991
2 55146  87.9118 127.3113 0002693  82.7594 277.3844 13.18686891 69236
ONEWEB-0567             
1 55147U 23004H   24136.95949100 -.00000031  00000+0 -11019-3 0  9994
2 55147  87.9114 127.2505 0002757  89.5323 270.6125 13.18691376 69246
ONEWEB-0569             
1 55148U 23004J   24137.23123056  .00000402  00000+0  10645-2 0  9994
2 55148  87.8903 111.8689 0003130  93.3399 266.8088 13.13471761 70152
ONEWEB-0570             
1 55149U 23004K   24136.94686141  .00000027  00000+0  35073-4 0  9998
2 55149  87.9120 127.2495 0002185  71.6240 288.5129 13.18687676 69237
ONEWEB-0571             
1 55150U 23004L   24136.94053260  .00000131  00000+0  29862-3 0  9994
2 55150  87.9121 127.2561 0003153  81.4941 278.6548 13.18688430 69242
ONEWEB-0572             
1 55151U 23004M   24136.58927896  .00000009  00000+0 -10044-4 0  9998
2 55151  87.9170 157.6509 0002171  86.5770 273.5610 13.17648507 67052
ONEWEB-0573             
1 55152U 23004N   24137.23772987  .00000025  00000+0  31206-4 0  9991
2 55152  87.9117 127.2195 0002931  75.3250 284.8207 13.18685677 69274
ONEWEB-0588             
1 55153U 23004P   24137.23140567  .00000042  00000+0  73266-4 0  9996
2 55153  87.9122 127.1857 0002284  73.0832 287.0550 13.18685833 69277
ONEWEB-0598             
1 55154U 23004Q   24136.64982171 -.00000174  00000+0 -52698-3 0  9999
2 55154  87.8977 172.7943 0002876  92.3727 267.7730 13.11320783 65950
ONEWEB-0599             
1 55155U 23004R   24136.54972821 -.00000020  00000+0 -84758-4 0  9993
2 55155  87.9178 157.6403 0002229  95.2427 264.8959 13.17648761 67058
ONEWEB-0614             
1 55156U 23004S   24136.64484917  .00000043  00000+0  85676-4 0  9992
2 55156  87.8980 172.7986 0001721  87.0906 273.0419 13.11344022 65890
ONEWEB-0616             
1 55157U 23004T   24137.12399540  .00000053  00000+0  10245-3 0  9994
2 55157  87.9170 157.5365 0002420 122.6391 237.4974 13.17648808 67343
ONEWEB-0617             
1 55158U 23004U   24136.86215712  .00000583  00000+0  16096-2 0  9990
2 55158  87.8975 172.7522 0001993  80.7615 279.3738 13.11394945 65948
ONEWEB-0618             
1 55159U 23004V   24136.91937495  .00003686  00000+0  15106-2 0  9994
2 55159  86.9037 104.7802 0014712  36.7593 323.4605 14.26858148 70748
ONEWEB-0619             
1 55160U 23004W   24136.62407126 -.00000036  00000+0 -12626-3 0  9990
2 55160  87.9171 157.6117 0001702 106.7027 253.4291 13.17649789 67175
ONEWEB-0620             
1 55161U 23004X   24136.85716934  .00000601  00000+0  16605-2 0  9992
2 55161  87.8979 172.7625 0002216  81.2533 278.8846 13.11416425 65913
ONEWEB-0621             
1 55162U 23004Y   24137.18894042  .00000131  00000+0  33554-3 0  9998
2 55162  87.8973 172.6669 0001631  93.5992 266.5323 13.11295833 65967
ONEWEB-0622             
1 55163U 23004Z   24137.11838245 -.00000333  00000+0 -97401-3 0  9992
2 55163  87.8976 172.6964 0001932  66.9934 293.1397 13.11437826 65926
ONEWEB-0623             
1 55164U 23004AA  24136.61933671 -.00000031  00000+0 -11302-3 0  9997
2 55164  87.9173 157.6662 0001657  68.3922 291.7385 13.17648525 67167
ONEWEB-0624             
1 55165U 23004AB  24137.05313927 -.00000182  00000+0 -54045-3 0  9991
2 55165  87.8932 142.3818 0001812  84.8624 275.2711 13.12445572 68083
ONEWEB-0625             
1 55166U 23004AC  24137.13981364  .00000102  00000+0  22905-3 0  9997
2 55166  87.9170 157.5620 0001935 100.8942 259.2408 13.17652938 67227
ONEWEB-0626             
1 55167U 23004AD  24137.13033315  .00000050  00000+0  94507-4 0  9992
2 55167  87.9170 157.5649 0002546  84.4276 275.7146 13.17651002 67228
ONEWEB-0627             
1 55168U 23004AE  24137.11924223  .00000085  00000+0  18571-3 0  9992
2 55168  87.9171 157.5681 0001919  69.1798 290.9539 13.17649696 67229
ONEWEB-0628             
1 55169U 23004AF  24137.25960731 -.00000140  00000+0 -42410-3 0  9995
2 55169  87.8929 142.3292 0001355  67.9518 292.1754 13.12439720 68099
ONEWEB-0629             
1 55170U 23004AG  24136.58295418 -.00000001  00000+0 -36410-4 0  9995
2 55170  87.9167 157.6663 0001499  93.5454 266.5849 13.17649835 67151
ONEWEB-0631             
1 55171U 23004AH  24137.22506988  .00000047  00000+0  86290-4 0  9994
2 55171  87.9128 127.0915 0002556  75.3246 284.8169 13.18688204 69257
